start=new Date('2023-04-30T00:00:00.000Z').valueOf();
sats=[{"INCLINATION":"53.0532","NORAD_CAT_ID":"44949","REV_AT_EPOCH":"18250","MEAN_MOTION_DDOT":"0.0000000000000","MEAN_MOTION":"15.06383289","RA_OF_ASC_NODE":"341.2058","CLASSIFICATION_TYPE":"U","MEAN_ANOMALY":"248.4929","SEMIMAJOR_AXIS":"6925.400","GP_ID":"230925924","MEAN_MOTION_DOT":"0.00013548","REF_FRAME":"TEME","FILE":"3896517","OBJECT_TYPE":"PAYLOAD","TLE_LINE1":"1 44949U 20001AM  23118.93211095  .00013548  00000-0  92708-3 0  9998","BSTAR":"0.00092708000000","RCS_SIZE":"LARGE","EPHEMERIS_TYPE":"0","OBJECT_ID":"2020-001AM","ARG_OF_PERICENTER":"111.6150","COUNTRY_CODE":"US","ELEMENT_SET_NO":"999","DECAY_DATE":null,"EPOCH":"2023-04-28T22:22:14.386080","MEAN_ELEMENT_THEORY":"SGP4","OBJECT_NAME":"STARLINK-1122","APOAPSIS":"547.849","TLE_LINE2":"2 44949  53.0532 341.2058 0000844 111.6150 248.4929 15.06383289182503","TIME_SYSTEM":"UTC","LAUNCH_DATE":"2020-01-07","CENTER_NAME":"EARTH","PERIAPSIS":"546.680","SITE":"AFETR","ECCENTRICITY":"0.00008440","PERIOD":"95.593"},{"DECAY_DATE":null,"EPOCH":"2023-04-29T18:52:38.222400","COUNTRY_CODE":"US","ELEMENT_SET_NO":"999","PERIAPSIS":"428.851","SITE":"AFETR","ECCENTRICITY":"0.00066540","PERIOD":"93.245","MEAN_ELEMENT_THEORY":"SGP4","APOAPSIS":"437.915","OBJECT_NAME":"STARLINK-1125","TLE_LINE2":"2 44950  53.0524 307.6581 0006654 224.2455 135.8019 15.44318561183050","TIME_SYSTEM":"UTC","LAUNCH_DATE":"2020-01-07","CENTER_NAME":"EARTH","CLASSIFICATION_TYPE":"U","MEAN_ANOMALY":"135.8019","SEMIMAJOR_AXIS":"6811.518","GP_ID":"230938163","REF_FRAME":"TEME","MEAN_MOTION_DOT":"0.00150521","OBJECT_TYPE":"PAYLOAD","FILE":"3896717","INCLINATION":"53.0524","NORAD_CAT_ID":"44950","REV_AT_EPOCH":"18305","MEAN_MOTION_DDOT":"0.0000000000000","MEAN_MOTION":"15.44318561","RA_OF_ASC_NODE":"307.6581","EPHEMERIS_TYPE":"0","OBJECT_ID":"2020-001AN","ARG_OF_PERICENTER":"224.2455","TLE_LINE1":"1 44950U 20001AN  23119.78655350  .00150521  00000-0  31607-2 0  9993","BSTAR":"0.00316070000000","RCS_SIZE":"LARGE"},{"TLE_LINE1":"1 44951U 20001AP  23119.84981047  .00021191  00000-0  51711-3 0  9995","RCS_SIZE":"LARGE","BSTAR":"0.00051711000000","OBJECT_ID":"2020-001AP","EPHEMERIS_TYPE":"0","ARG_OF_PERICENTER":"241.7774","NORAD_CAT_ID":"44951","INCLINATION":"53.0196","MEAN_MOTION_DDOT":"0.0000000000000","REV_AT_EPOCH":"18455","RA_OF_ASC_NODE":"289.4783","MEAN_MOTION":"15.40830839","MEAN_ANOMALY":"118.2681","CLASSIFICATION_TYPE":"U","GP_ID":"230937815","SEMIMAJOR_AXIS":"6821.793","FILE":"3896717","OBJECT_TYPE":"PAYLOAD","MEAN_MOTION_DOT":"0.00021191","REF_FRAME":"TEME","MEAN_ELEMENT_THEORY":"SGP4","TLE_LINE2":"2 44951  53.0196 289.4783 0005432 241.7774 118.2681 15.40830839184557","TIME_SYSTEM":"UTC","APOAPSIS":"447.364","OBJECT_NAME":"STARLINK-1126","LAUNCH_DATE":"2020-01-07","CENTER_NAME":"EARTH","PERIAPSIS":"439.952","SITE":"AFETR","PERIOD":"93.456","ECCENTRICITY":"0.00054320","COUNTRY_CODE":"US","ELEMENT_SET_NO":"999","DECAY_DATE":null,"EPOCH":"2023-04-29T20:23:43.624608"},{"ARG_OF_PERICENTER":"104.0919","OBJECT_ID":"2020-001AQ","EPHEMERIS_TYPE":"0","BSTAR":"0.00138350000000","RCS_SIZE":"LARGE","TLE_LINE1":"1 44952U 20001AQ  23119.77617205  .00020404  00000-0  13835-2 0  9990","MEAN_MOTION_DOT":"0.00020404","REF_FRAME":"TEME","OBJECT_TYPE":"PAYLOAD","FILE":"3896716","SEMIMAJOR_AXIS":"6925.247","GP_ID":"230937795","CLASSIFICATION_TYPE":"U","MEAN_ANOMALY":"256.0176","MEAN_MOTION":"15.06433049","RA_OF_ASC_NODE":"337.4161","REV_AT_EPOCH":"18263","MEAN_MOTION_DDOT":"0.0000000000000","INCLINATION":"53.0536","NORAD_CAT_ID":"44952","ECCENTRICITY":"0.00009520","PERIOD":"95.590","SITE":"AFETR","PERIAPSIS":"546.453","CENTER_NAME":"EARTH","LAUNCH_DATE":"2020-01-07","APOAPSIS":"547.772","OBJECT_NAME":"STARLINK-1117","TIME_SYSTEM":"UTC","TLE_LINE2":"2 44952  53.0536 337.4161 0000952 104.0919 256.0176 15.06433049182635","MEAN_ELEMENT_THEORY":"SGP4","EPOCH":"2023-04-29T18:37:41.265120","DECAY_DATE":null,"ELEMENT_SET_NO":"999","COUNTRY_CODE":"US"},{"COUNTRY_CODE":"US","ELEMENT_SET_NO":"999","DECAY_DATE":null,"EPOCH":"2023-04-29T19:02:53.127744","MEAN_ELEMENT_THEORY":"SGP4","APOAPSIS":"548.125","OBJECT_NAME":"STARLINK-1124","TLE_LINE2":"2 44953  53.0542 337.3382 0001305  93.9062 266.2076 15.06397485183923","TIME_SYSTEM":"UTC","LAUNCH_DATE":"2020-01-07","CENTER_NAME":"EARTH","PERIAPSIS":"546.318","SITE":"AFETR","ECCENTRICITY":"0.00013050","PERIOD":"95.592","INCLINATION":"53.0542","NORAD_CAT_ID":"44953","REV_AT_EPOCH":"18392","MEAN_MOTION_DDOT":"0.0000000000000","RA_OF_ASC_NODE":"337.3382","MEAN_MOTION":"15.06397485","CLASSIFICATION_TYPE":"U","MEAN_ANOMALY":"266.2076","SEMIMAJOR_AXIS":"6925.356","GP_ID":"230938156","REF_FRAME":"TEME","MEAN_MOTION_DOT":"0.00021313","FILE":"3896717","OBJECT_TYPE":"PAYLOAD","TLE_LINE1":"1 44953U 20001AR  23119.79367046  .00021313  00000-0  14455-2 0  9997","BSTAR":"0.00144550000000","RCS_SIZE":"LARGE","EPHEMERIS_TYPE":"0","OBJECT_ID":"2020-001AR","ARG_OF_PERICENTER":"93.9062"},{"SEMIMAJOR_AXIS":"6925.310","GP_ID":"230937977","REF_FRAME":"TEME","MEAN_MOTION_DOT":"0.00021087","OBJECT_TYPE":"PAYLOAD","FILE":"3896705","CLASSIFICATION_TYPE":"U","MEAN_ANOMALY":"291.9432","REV_AT_EPOCH":"18285","MEAN_MOTION_DDOT":"0.0000000000000","RA_OF_ASC_NODE":"317.5722","MEAN_MOTION":"15.06412527","INCLINATION":"53.0536","NORAD_CAT_ID":"44954","ARG_OF_PERICENTER":"68.1662","EPHEMERIS_TYPE":"0","OBJECT_ID":"2020-001AS","BSTAR":"0.00142980000000","RCS_SIZE":"LARGE","TLE_LINE1":"1 44954U 20001AS  23119.74116852  .00021087  00000-0  14298-2 0  9993","EPOCH":"2023-04-29T17:47:16.960128","DECAY_DATE":null,"ELEMENT_SET_NO":"999","COUNTRY_CODE":"US","SITE":"AFETR","ECCENTRICITY":"0.00009870","PERIOD":"95.591","PERIAPSIS":"546.492","LAUNCH_DATE":"2020-01-07","CENTER_NAME":"EARTH","MEAN_ELEMENT_THEORY":"SGP4","OBJECT_NAME":"STARLINK-1066","APOAPSIS":"547.859","TLE_LINE2":"2 44954  53.0536 317.5722 0000987  68.1662 291.9432 15.06412527182857","TIME_SYSTEM":"UTC"},{"ARG_OF_PERICENTER":"81.4441","EPHEMERIS_TYPE":"0","OBJECT_ID":"2020-001AT","RCS_SIZE":"LARGE","BSTAR":"0.00078444000000","TLE_LINE1":"1 44955U 20001AT  23119.54950105  .00011423  00000-0  78444-3 0  9996","OBJECT_TYPE":"PAYLOAD","FILE":"3896517","REF_FRAME":"TEME","MEAN_MOTION_DOT":"0.00011423","GP_ID":"230925156","SEMIMAJOR_AXIS":"6925.339","MEAN_ANOMALY":"278.6628","CLASSIFICATION_TYPE":"U","MEAN_MOTION":"15.06403001","RA_OF_ASC_NODE":"318.4356","MEAN_MOTION_DDOT":"0.0000000000000","REV_AT_EPOCH":"18282","NORAD_CAT_ID":"44955","INCLINATION":"53.0540","PERIOD":"95.592","ECCENTRICITY":"0.00007010","SITE":"AFETR","PERIAPSIS":"546.719","CENTER_NAME":"EARTH","LAUNCH_DATE":"2020-01-07","TLE_LINE2":"2 44955  53.0540 318.4356 0000701  81.4441 278.6628 15.06403001182826","TIME_SYSTEM":"UTC","APOAPSIS":"547.690","OBJECT_NAME":"STARLINK-1069","MEAN_ELEMENT_THEORY":"SGP4","EPOCH":"2023-04-29T13:11:16.890720","DECAY_DATE":null,"ELEMENT_SET_NO":"999","COUNTRY_CODE":"US"},{"TLE_LINE2":"2 44956  53.0536 318.4485 0000565  87.3571 272.7482 15.06400725182881","TIME_SYSTEM":"UTC","OBJECT_NAME":"STARLINK-1070","APOAPSIS":"547.603","MEAN_ELEMENT_THEORY":"SGP4","CENTER_NAME":"EARTH","LAUNCH_DATE":"2020-01-07","PERIAPSIS":"546.820","PERIOD":"95.592","ECCENTRICITY":"0.00005650","SITE":"AFETR","COUNTRY_CODE":"US","ELEMENT_SET_NO":"999","DECAY_DATE":null,"EPOCH":"2023-04-29T13:04:36.527808","TLE_LINE1":"1 44956U 20001AU  23119.54486722  .00004575  00000-0  32579-3 0  9995","RCS_SIZE":"LARGE","BSTAR":"0.00032579000000","EPHEMERIS_TYPE":"0","OBJECT_ID":"2020-001AU","ARG_OF_PERICENTER":"87.3571","NORAD_CAT_ID":"44956","INCLINATION":"53.0536","RA_OF_ASC_NODE":"318.4485","MEAN_MOTION":"15.06400725","MEAN_MOTION_DDOT":"0.0000000000000","REV_AT_EPOCH":"18288","MEAN_ANOMALY":"272.7482","CLASSIFICATION_TYPE":"U","FILE":"3896517","OBJECT_TYPE":"PAYLOAD","MEAN_MOTION_DOT":"0.00004575","REF_FRAME":"TEME","GP_ID":"230925175","SEMIMAJOR_AXIS":"6925.346"},{"DECAY_DATE":null,"EPOCH":"2023-04-29T18:28:23.627424","COUNTRY_CODE":"US","ELEMENT_SET_NO":"999","PERIAPSIS":"546.309","SITE":"AFETR","PERIOD":"95.592","ECCENTRICITY":"0.00012950","MEAN_ELEMENT_THEORY":"SGP4","TLE_LINE2":"2 44957  53.0534 317.4382 0001295  66.0970 294.0155 15.06402637182915","TIME_SYSTEM":"UTC","APOAPSIS":"548.102","OBJECT_NAME":"STARLINK-1074","LAUNCH_DATE":"2020-01-07","CENTER_NAME":"EARTH","MEAN_ANOMALY":"294.0155","CLASSIFICATION_TYPE":"U","GP_ID":"230937685","SEMIMAJOR_AXIS":"6925.340","OBJECT_TYPE":"PAYLOAD","FILE":"3896709","REF_FRAME":"TEME","MEAN_MOTION_DOT":"0.00017389","NORAD_CAT_ID":"44957","INCLINATION":"53.0534","MEAN_MOTION_DDOT":"0.0000000000000","REV_AT_EPOCH":"18291","RA_OF_ASC_NODE":"317.4382","MEAN_MOTION":"15.06402637","OBJECT_ID":"2020-001AV","EPHEMERIS_TYPE":"0","ARG_OF_PERICENTER":"66.0970","TLE_LINE1":"1 44957U 20001AV  23119.76971791  .00017389  00000-0  11833-2 0  9991","RCS_SIZE":"LARGE","BSTAR":"0.00118330000000"},{"SITE":"AFETR","ECCENTRICITY":"0.00006560","PERIOD":"95.592","PERIAPSIS":"546.750","LAUNCH_DATE":"2020-01-07","CENTER_NAME":"EARTH","MEAN_ELEMENT_THEORY":"SGP4","APOAPSIS":"547.659","OBJECT_NAME":"STARLINK-1076","TIME_SYSTEM":"UTC","TLE_LINE2":"2 44959  53.0542 317.3770 0000656 116.7034 243.4022 15.06402991182914","EPOCH":"2023-04-29T18:50:57.969024","DECAY_DATE":null,"ELEMENT_SET_NO":"999","COUNTRY_CODE":"US","ARG_OF_PERICENTER":"116.7034","EPHEMERIS_TYPE":"0","OBJECT_ID":"2020-001AX","BSTAR":"0.00130790000000","RCS_SIZE":"LARGE","TLE_LINE1":"1 44959U 20001AX  23119.78539316  .00019255  00000-0  13079-2 0  9996","SEMIMAJOR_AXIS":"6925.339","GP_ID":"230937690","REF_FRAME":"TEME","MEAN_MOTION_DOT":"0.00019255","OBJECT_TYPE":"PAYLOAD","FILE":"3896709","CLASSIFICATION_TYPE":"U","MEAN_ANOMALY":"243.4022","REV_AT_EPOCH":"18291","MEAN_MOTION_DDOT":"0.0000000000000","RA_OF_ASC_NODE":"317.3770","MEAN_MOTION":"15.06402991","INCLINATION":"53.0542","NORAD_CAT_ID":"44959"}];
